NORAD_CAT_ID,OBJECT_NAME,OBJECT_TYPE,EPOCH,MEAN_MOTION,ECCENTRICITY,INCLINATION,RA_OF_ASC_NODE,ARG_OF_PERICENTER,MEAN_ANOMALY,BSTAR,MEAN_MOTION_DOT,MEAN_MOTION_DDOT,TLE_LINE0,TLE_LINE1,TLE_LINE2,SEMIMAJOR_AXIS,PERIOD,APOGEE,PERIGEE,DECAYED
52561.0,STARLINK-3955,PAYLOAD,2024-04-15 21:24:14,15.08845101,0.0001491,53.2194,4.2036,108.7315,251.3839,4.226e-05,3.85e-06,0.0,0 STARLINK-3955,1 52561U 22051AE  24106.89183564  .00000385  00000-0  42260-4 0  9990,2 52561  53.2194   4.2036 0001491 108.7315 251.3839 15.08845101106786,6917.865,95.437,540.761,538.698,0.0
52561.0,STARLINK-3955,PAYLOAD,2024-04-16 02:10:23,15.08850175,0.0001357,53.2191,3.3092,85.7648,274.3499,0.00010861,1.441e-05,0.0,0 STARLINK-3955,1 52561U 22051AE  24107.09054949  .00001441  00000-0  10861-3 0  9992,2 52561  53.2191   3.3092 0001357  85.7648 274.3499 15.08850175106884,6917.849,95.437,540.653,538.776,0.0
52561.0,STARLINK-3955,PAYLOAD,2024-04-16 10:07:19,15.08848024,0.0001582,53.2188,1.8325,76.898,283.2188,9.6051e-05,1.241e-05,0.0,0 STARLINK-3955,1 52561U 22051AE  24107.42175227  .00001241  00000-0  96051-4 0  9996,2 52561  53.2188   1.8325 0001582  76.8980 283.2188 15.08848024106864,6917.856,95.437,540.815,538.626,0.0
52561.0,STARLINK-3955,PAYLOAD,2024-04-16 21:15:00,15.08853831,9.88e-05,53.2186,359.7506,95.8226,264.2879,0.00011365,1.522e-05,0.0,0 STARLINK-3955,1 52561U 22051AE  24107.88542671  .00001522  00000-0  11365-3 0  9993,2 52561  53.2186 359.7506 0000988  95.8226 264.2879 15.08853831106937,6917.838,95.437,540.387,539.02,0.0
52561.0,STARLINK-3955,PAYLOAD,2024-04-17 02:01:09,15.08876045,0.0001164,53.2174,358.855,96.7285,263.384,0.0004699,7.206e-05,0.0,0 STARLINK-3955,1 52561U 22051AE  24108.08413296  .00007206  00000-0  46990-3 0  9993,2 52561  53.2174 358.8550 0001164  96.7285 263.3840 15.08876045107037,6917.77,95.435,540.44,538.83,0.0
52561.0,STARLINK-3955,PAYLOAD,2024-04-17 21:05:49,15.08824958,0.0001355,53.2172,355.2907,85.8163,274.2984,-8.5418e-05,-1.646e-05,0.0,0 STARLINK-3955,1 52561U 22051AE  24108.87904422 -.00001646  00000-0 -85418-4 0  9999,2 52561  53.2172 355.2907 0001355  85.8163 274.2984 15.08824958107089,6917.926,95.439,540.729,538.854,0.0
52561.0,STARLINK-3955,PAYLOAD,2024-04-18 03:27:21,15.08836724,0.0001317,53.2174,354.1001,71.1525,288.9609,4.7614e-05,4.7e-06,0.0,0 STARLINK-3955,1 52561U 22051AE  24109.14399892  .00000470  00000-0  47614-4 0  9997,2 52561  53.2174 354.1001 0001317  71.1525 288.9609 15.08836724107194,6917.89,95.438,540.666,538.844,0.0
52561.0,STARLINK-3955,PAYLOAD,2024-04-18 08:13:31,15.08825662,0.0001382,53.2173,353.2122,73.6097,286.5047,-4.2503e-05,-9.64e-06,0.0,0 STARLINK-3955,1 52561U 22051AE  24109.34272401 -.00000964  00000-0 -42503-4 0  9997,2 52561  53.2173 353.2122 0001382  73.6097 286.5047 15.08825662107155,6917.924,95.438,540.745,538.833,0.0
52561.0,STARLINK-3955,PAYLOAD,2024-04-18 20:56:36,15.08845259,0.0001232,53.217,350.8301,72.7887,287.324,0.00060618,9.374e-05,0.0,0 STARLINK-3955,1 52561U 22051AE  24109.87264386  .00009374  00000-0  60618-3 0  9996,2 52561  53.2170 350.8301 0001232  72.7887 287.3240 15.08845259107300,6917.864,95.437,540.582,538.877,0.0
52561.0,STARLINK-3955,PAYLOAD,2024-04-18 22:31:59,15.08847042,0.0001273,53.2173,350.5325,90.0605,270.0533,0.00057842,8.931e-05,0.0,0 STARLINK-3955,1 52561U 22051AE  24109.93888279  .00008931  00000-0  57842-3 0  9999,2 52561  53.2173 350.5325 0001273  90.0605 270.0533 15.08847042107241,6917.859,95.437,540.605,538.843,0.0
52561.0,STARLINK-3955,PAYLOAD,2024-04-19 01:42:45,15.08850304,0.0001417,53.2171,349.9366,99.6051,260.5101,0.00067554,0.00010483,0.0,0 STARLINK-3955,1 52561U 22051AE  24110.07136206  .00010483  00000-0  67554-3 0  9998,2 52561  53.2171 349.9366 0001417  99.6051 260.5101 15.08850304107268,6917.849,95.437,540.694,538.734,0.0
52561.0,STARLINK-3955,PAYLOAD,2024-04-19 20:47:23,15.08855119,0.0001898,53.2191,346.3707,83.261,276.8598,0.00048012,7.364e-05,0.0,0 STARLINK-3955,1 52561U 22051AE  24110.86624252  .00007364  00000-0  48012-3 0  9990,2 52561  53.2191 346.3707 0001898  83.2610 276.8598 15.08855119107453,6917.834,95.437,541.012,538.386,0.0
52561.0,STARLINK-3955,PAYLOAD,2024-04-19 22:22:46,15.08861097,0.000189,53.2189,346.0692,90.528,269.5929,0.00062192,9.629e-05,0.0,0 STARLINK-3955,1 52561U 22051AE  24110.93248012  .00009629  00000-0  62192-3 0  9995,2 52561  53.2189 346.0692 0001890  90.5280 269.5929 15.08861097107398,6917.816,95.436,540.988,538.373,0.0
52561.0,STARLINK-3955,PAYLOAD,2024-04-20 01:33:32,15.08869929,0.0001878,53.2193,345.4692,96.3552,263.7654,0.00085681,0.00013386,0.0,0 STARLINK-3955,1 52561U 22051AE  24111.06495617  .00013386  00000-0  85681-3 0  9998,2 52561  53.2193 345.4692 0001878  96.3552 263.7654 15.08869929107481,6917.789,95.436,540.953,538.355,0.0
52561.0,STARLINK-3955,PAYLOAD,2024-04-20 20:38:09,15.08846398,0.0001604,53.2189,341.9061,111.4154,248.7009,0.00011428,1.532e-05,0.0,0 STARLINK-3955,1 52561U 22051AE  24111.85983546  .00001532  00000-0  11428-3 0  9996,2 52561  53.2189 341.9061 0001604 111.4154 248.7009 15.08846398107607,6917.861,95.437,540.835,538.616,0.0
52561.0,STARLINK-3955,PAYLOAD,2024-04-21 01:24:19,15.0885133,0.0001842,53.2196,341.0129,120.3808,239.7366,0.00065755,0.00010196,0.0,0 STARLINK-3955,1 52561U 22051AE  24112.05855435  .00010196  00000-0  65755-3 0  9992,2 52561  53.2196 341.0129 0001842 120.3808 239.7366 15.08851330107563,6917.846,95.437,540.985,538.436,0.0
52561.0,STARLINK-3955,PAYLOAD,2024-04-21 20:28:57,15.08825658,0.000163,53.2185,337.4467,121.7748,238.3403,0.00063911,9.894e-05,0.0,0 STARLINK-3955,1 52561U 22051AE  24112.85344202  .00009894  00000-0  63911-3 0  9990,2 52561  53.2185 337.4467 0001630 121.7748 238.3403 15.08825658107750,6917.924,95.438,540.917,538.662,0.0
52561.0,STARLINK-3955,PAYLOAD,2024-04-22 01:15:06,15.08829553,0.0001683,53.2184,336.5544,122.7329,237.3826,0.00031442,4.718e-05,0.0,0 STARLINK-3955,1 52561U 22051AE  24113.05216200  .00004718  00000-0  31442-3 0  9993,2 52561  53.2184 336.5544 0001683 122.7329 237.3826 15.08829553107711,6917.912,95.438,540.942,538.613,0.0
52561.0,STARLINK-3955,PAYLOAD,2024-04-22 20:19:45,15.08828596,0.0001674,53.2181,332.9858,121.5042,238.6114,1.5804e-05,-3.7e-07,0.0,0 STARLINK-3955,1 52561U 22051AE  24113.84705101 -.00000037  00000-0  15804-4 0  9999,2 52561  53.2181 332.9858 0001674 121.5042 238.6114 15.08828596107906,6917.915,95.438,540.938,538.622,0.0
52561.0,STARLINK-3955,PAYLOAD,2024-04-22 21:55:08,15.08833013,0.0001661,53.219,332.6844,62.8273,297.2888,0.00012138,1.644e-05,0.0,0 STARLINK-3955,1 52561U 22051AE  24113.91329298  .00001644  00000-0  12138-3 0  9996,2 52561  53.2190 332.6844 0001661  62.8273 297.2888 15.08833013107849,6917.902,95.438,540.916,538.618,0.0
52561.0,STARLINK-3955,PAYLOAD,2024-04-22 23:30:31,15.08843539,0.0001267,53.218,332.3933,119.2383,240.8736,0.00027323,4.064e-05,0.0,0 STARLINK-3955,1 52561U 22051AE  24113.97952633  .00004064  00000-0  27323-3 0  9998,2 52561  53.2180 332.3933 0001267 119.2383 240.8736 15.08843539107924,6917.87,95.437,540.611,538.858,0.0
52561.0,STARLINK-3955,PAYLOAD,2024-04-23 20:10:32,15.08842163,0.0001574,53.2184,328.5231,108.716,251.4003,0.00031563,4.739e-05,0.0,0 STARLINK-3955,1 52561U 22051AE  24114.84065100  .00004739  00000-0  31563-3 0  9999,2 52561  53.2184 328.5231 0001574 108.7160 251.4003 15.08842163108055,6917.874,95.437,540.828,538.65,0.0
52561.0,STARLINK-3955,PAYLOAD,2024-04-23 21:45:55,15.08845107,0.0001645,53.219,328.2277,72.2747,287.8424,0.00039991,6.083e-05,0.0,0 STARLINK-3955,1 52561U 22051AE  24114.90689226  .00006083  00000-0  39991-3 0  9994,2 52561  53.2190 328.2277 0001645  72.2747 287.8424 15.08845107107997,6917.865,95.437,540.868,538.592,0.0
52561.0,STARLINK-3955,PAYLOAD,2024-04-23 23:21:18,15.08858853,0.0001327,53.2185,327.9271,101.9711,258.143,0.00063556,9.847e-05,0.0,0 STARLINK-3955,1 52561U 22051AE  24114.97312640  .00009847  00000-0  63556-3 0  9999,2 52561  53.2185 327.9271 0001327 101.9711 258.1430 15.08858853108079,6917.823,95.436,540.606,538.77,0.0
52561.0,STARLINK-3955,PAYLOAD,2024-04-24 13:39:47,15.08833325,0.0001332,53.2183,325.2557,88.2299,271.8846,2.83e-05,1.62e-06,0.0,0 STARLINK-3955,1 52561U 22051AE  24115.56929524  .00000162  00000-0  28300-4 0  9990,2 52561  53.2183 325.2557 0001332  88.2299 271.8846 15.08833325108169,6917.901,95.438,540.687,538.844,0.0
52561.0,STARLINK-3955,PAYLOAD,2024-04-24 21:36:42,15.08843187,0.0001127,53.2174,323.7722,88.4424,271.6697,0.00011834,1.596e-05,0.0,0 STARLINK-3955,1 52561U 22051AE  24115.90049211  .00001596  00000-0  11834-3 0  9999,2 52561  53.2174 323.7722 0001127  88.4424 271.6697 15.08843187108147,6917.871,95.437,540.515,538.956,0.0
52561.0,STARLINK-3955,PAYLOAD,2024-04-25 19:52:06,15.0884548,0.0001375,53.2174,319.6081,64.8057,295.3078,0.00012093,1.637e-05,0.0,0 STARLINK-3955,1 52561U 22051AE  24116.82785420  .00001637  00000-0  12093-3 0  9994,2 52561  53.2174 319.6081 0001375  64.8057 295.3078 15.08845480108283,6917.864,95.437,540.68,538.777,0.0
52561.0,STARLINK-3955,PAYLOAD,2024-04-26 13:21:21,15.08843877,0.0001472,53.2169,316.3379,52.6457,307.4669,0.00018387,2.64e-05,0.0,0 STARLINK-3955,1 52561U 22051AE  24117.55649514  .00002640  00000-0  18387-3 0  9995,2 52561  53.2169 316.3379 0001472  52.6457 307.4669 15.08843877108467,6917.869,95.437,540.752,538.715,0.0
52561.0,STARLINK-3955,PAYLOAD,2024-04-26 19:42:53,15.08849612,9.92e-05,53.2168,315.1448,86.6417,273.4689,0.00016871,2.399e-05,0.0,0 STARLINK-3955,1 52561U 22051AE  24117.82144952  .00002399  00000-0  16871-3 0  9998,2 52561  53.2168 315.1448 0000992  86.6417 273.4689 15.08849612108433,6917.851,95.437,540.402,539.03,0.0
52561.0,STARLINK-3955,PAYLOAD,2024-04-27 13:12:08,15.08842002,0.0001254,53.2169,311.8756,82.8288,277.2847,0.00012026,1.627e-05,0.0,0 STARLINK-3955,1 52561U 22051AE  24118.55009328  .00001627  00000-0  12026-3 0  9997,2 52561  53.2169 311.8756 0001254  82.8288 277.2847 15.08842002108541,6917.874,95.437,540.607,538.872,0.0
